HST                     
1 20580U 90037B   26195.45743294  .00003622  00000+0  10984-3 0  9992
2 20580  28.4724 254.1506 0002218  96.5348 263.5501 15.31056727792754
POLAR                   
1 23802U 96013A   26194.99528213  .00000215  00000+0  00000+0 0  9991
2 23802  79.8899 226.7339 6497314 208.1555  91.6174  1.29846071145207
SWAS                    
1 25560U 98071A   26195.38013771  .00001617  00000+0  10646-3 0  9990
2 25560  69.8939 157.3858 0008001 231.4104 128.6344 15.09744124501376
CXO                     
1 25867U 99040B   26198.46886809  .00000598  00000+0  00000+0 0  9995
2 25867  56.6226 115.7943 7787022 310.0504   0.5333  0.37805709 17431
XMM-NEWTON              
1 25989U 99066A   26197.27126138  .00000020  00000+0  00000+0 0  9998
2 25989  64.3306 282.6120 4665766  64.4091   0.1022  0.50127411 23148
TERRA                   
1 25994U 99068A   26195.62614433  .00000188  00000+0  47265-4 0  9997
2 25994  97.9442 244.0824 0003387 123.7802 352.1206 14.61123443413617
CLUSTER II-FM7 (SAMBA)  
1 26410U 00041A   26192.68021872  .00012833  00000+0  00000+0 0  9997
2 26410 149.8437  55.3938 9082311 272.8334 359.6328  0.44896530 20420
CLUSTER II-FM8 (TANGO)  
1 26464U 00045B   26193.20090759  .00013276  00000+0  00000+0 0  9991
2 26464 150.0466  56.7498 9087829 274.0539   2.1034  0.44428696 20429
ODIN                    
1 26702U 01007A   26195.61368094  .00278852  30205-4  97817-3 0  9996
2 26702  97.3736 238.5522 0005132 154.7037 205.4488 15.89188235393735
TIMED                   
1 26998U 01055B   26195.37182817  .00000553  00000+0  53721-4 0  9999
2 26998  74.0665 180.2799 0002220 301.5234  58.5733 14.95343591334885
CORIOLIS                
1 27640U 03001A   26195.60802488  .00000044  00000+0  41076-4 0  9991
2 27640  98.7134 202.0746 0014891 130.7545 229.4927 14.19951709218116
SORCE                   
1 27651U 03004A   26194.17261998  .00001531  00000+0  11990-3 0  9995
2 27651  39.9908 113.4042 0018576 240.8928 119.0006 15.03836025275819
MOST                    
1 27843U 03031D   26195.59558525  .00000016  00000+0  27460-4 0  9997
2 27843  98.7053 202.9395 0010051 166.7190 193.4254 14.21327619194609
SCISAT 1                
1 27858U 03036A   26195.50733103  .00000283  00000+0  40810-4 0  9996
2 27858  73.9301 117.0616 0007401 185.3100 174.7999 14.81478511235496
SWIFT                   
1 28485U 04047A   26195.51335693  .00043330  00000+0  31959-3 0  9992
2 28485  20.5530 333.6864 0002053  17.5678 342.4839 15.71113940191164
HINODE (SOLAR-B)        
1 29479U 06041A   26195.57407364  .00000302  00000+0  60320-4 0  9990
2 29479  98.0549 211.3229 0016980 196.4538 163.6118 14.68657800 58899
SHIJIAN-6 02A (SJ-6 02A)
1 29505U 06046A   26195.59570271  .00005869  00000+0  29833-3 0  9991
2 29505  97.6344 236.8711 0004299  63.7736 296.3938 15.17245369 76422
SHIJIAN-6 02B (SJ-6 02B)
1 29506U 06046B   26195.60436233  .00000774  00000+0  64557-4 0  9996
2 29506  97.7147 224.4932 0013476 338.4122  21.6532 15.01437930 74855
FGRST (GLAST)           
1 33053U 08029A   26194.87715061  .00002161  00000+0  73017-4 0  9991
2 33053  25.5829  19.1417 0007749 283.0885  76.8788 15.24072309999915
SDO                     
1 36395U 10005A   26195.27947453 -.00000106  00000+0  00000+0 0  9992
2 36395  34.7062  85.9305 0001959  51.0470 153.5206  1.00277077 60336
CRYOSAT 2               
1 36508U 10013A   26195.58066212  .00000126  00000+0  30490-4 0  9998
2 36508  92.0359 283.9612 0002384  98.5706 261.5771 14.51898240862057
X-SAT                   
1 37389U 11015C   26195.60554720 -.00000053  00000+0 -47872-5 0  9992
2 37389  98.3520 171.3252 0012709 262.8743  97.0992 14.25213552791587
GCOM-W1 (SHIZUKU)       
1 38337U 12025A   26195.59037244  .00000200  00000+0  54455-4 0  9999
2 38337  98.2024 135.7317 0001325  77.8894  95.0617 14.57089859753023
NUSTAR                  
1 38358U 12031A   26195.66668981  .00005744  00000+0  29932-3 0  9994
2 38358   6.0257 187.9750 0007601 169.0023 200.4247 15.09042580  1308
NEOSSAT                 
1 39089U 13009D   26195.45687139  .00000058  00000+0  34915-4 0  9996
2 39089  98.4189  14.8427 0011412 159.3934 200.7715 14.35835508700651
BRITE-AUSTRIA           
1 39091U 13009F   26195.44191914  .00000082  00000+0  42362-4 0  9991
2 39091  98.4007  14.2048 0010722 152.8336 207.3414 14.36552341700968
IRIS                    
1 39197U 13033A   26195.50489391  .00000509  00000+0  64465-4 0  9993
2 39197  97.9319  34.6959 0023280 227.3924 132.5328 14.85936126704436
HISAKI (SPRINT-A)       
1 39253U 13049A   26195.37845452  .00000081  00000+0  18458-4 0  9998
2 39253  29.7209  81.7649 0136952 237.2707 121.4597 13.55546668635116
CASSIOPE                
1 39265U 13055A   26195.62824009  .00021084 -53073-6  22613-3 0  9990
2 39265  80.9126  33.3315 0282916 329.8056  28.7121 15.27398399671856
STSAT-3                 
1 39422U 13066G   26195.61151309  .00001194  00000+0  93445-4 0  9998
2 39422  97.6187 165.0571 0008931 307.7574  52.2841 15.02882819688322
SWARM B                 
1 39451U 13067A   26195.56301599  .00002006  00000+0  70616-4 0  9991
2 39451  87.7459 334.0003 0002316  82.1125 278.0387 15.28714459687426
SWARM A                 
1 39452U 13067B   26195.63701587  .00006434  00000+0  10839-3 0  9990
2 39452  87.3297  46.0346 0003308  93.5879 266.5761 15.51451929710507
SWARM C                 
1 39453U 13067C   26195.63692226  .00006371  00000+0  10731-3 0  9991
2 39453  87.3297  44.6155 0003300  93.7723 266.3916 15.51451287710464
BRITE-CA1 (TORONTO)     
1 40020U 14033L   26195.35124036  .00000526  00000+0  86646-4 0  9990
2 40020  97.9770 323.7836 0078374 188.9650 171.0163 14.72721565646213
OCO 2                   
1 40059U 14035A   26195.55443433  .00000166  00000+0  46894-4 0  9992
2 40059  98.2020 136.4318 0001442  81.3634 278.7728 14.57131930640031
BRITE-PL2 (HEWELIUSZ)   
1 40119U 14049B   26195.55362018  .00000560  00000+0  57099-4 0  9990
2 40119  97.9120 307.7691 0014396  24.3695 335.8202 14.94686242645532
MMS 1                   
1 40482U 15011A   26195.66668981 -.00001497  00000+0  00000+0 0  9999
2 40482  72.4679 348.4320 8301983 168.0365 221.5244  0.28338034  1350
MMS 2                   
1 40483U 15011B   26195.66668981 -.00001497  00000+0  00000+0 0  9990
2 40483  72.4731 348.4311 8304882 168.0405 221.5077  0.28338839  1353
MMS 3                   
1 40484U 15011C   26195.66668981 -.00001496  00000+0  00000+0 0  9990
2 40484  72.4716 348.4429 8303166 168.0471 221.4859  0.28338010  1329
MMS 4                   
1 40485U 15011D   26195.66668981 -.00001497  00000+0  00000+0 0  9992
2 40485  72.4685 348.4264 8303197 168.0581 221.4769  0.28338879  1387
ASTROSAT                
1 40930U 15052A   26195.60591478  .00001128  00000+0  55705-4 0  9999
2 40930   5.9977 317.9923 0007438  64.8495 295.2404 14.82551732583906
DAMPE                   
1 41173U 15078A   26195.62232541  .00000584  00000+0  22189-4 0  9997
2 41173  97.4558 201.2254 0011642 347.6642  12.4312 15.30851912588748
PISAT                   
1 41784U 16059B   26195.52606584  .00000454  00000+0  84878-4 0  9995
2 41784  97.8191 194.8056 0030425 116.8788 243.5534 14.69028974523755
HXMT (HUIYAN)           
1 42758U 17034A   26195.62799907  .00002159  00000+0  11249-3 0  9999
2 42758  43.0154  30.2190 0032362 317.2788  42.5546 15.18685296501836
FLYING LAPTOP           
1 42831U 17042G   26195.58021759  .00002177  00000+0  17302-3 0  9994
2 42831  97.4797 350.0817 0019729  34.5222 325.7279 15.01310930490565
ZHANGHENG 1-01 (CSES-1) 
1 43194U 18015C   26195.57474513  .00004113  00000+0  19035-3 0  9994
2 43194  97.6886   1.7813 0016340 167.0587 193.1071 15.20604065468802
SALSAT                  
1 46495U 20068K   26195.54877328  .00004163  00000+0  14541-3 0  9992
2 46495  97.8856 200.2874 0009148 195.2534 164.8431 15.30166467319545
IXPE                    
1 49954U 21121A   26195.66668981  .00006028  00000+0  30113-3 0  9997
2 49954   0.2301 109.3873 0006699 134.6823 250.9026 15.10487805  5342
SMILE                   
1 69123U 26109A   26190.74998430  .00001173  00000+0  00000+0 0  9991
2 69123  70.0471 206.6613 8323711 287.0422   0.1458  0.47504768    49
